[{"OBJECT_NAME":"ONEWEB-0236","OBJECT_ID":"2021-045AG","EPOCH":"2026-03-09T20:16:44.943168","MEAN_MOTION":13.15547407,"ECCENTRICITY":0.00016368,"INCLINATION":87.8937,"RA_OF_ASC_NODE":279.0458,"ARG_OF_PERICENTER":84.3963,"MEAN_ANOMALY":275.7354,"EPHEMERIS_TYPE":0,"CLASSIFICATION_TYPE":"U","NORAD_CAT_ID":48797,"ELEMENT_SET_NO":999,"REV_AT_EPOCH":23119,"BSTAR":-0.00037741727,"MEAN_MOTION_DOT":-1.29e-6,"MEAN_MOTION_DDOT":0},{"OBJECT_NAME":"SCOUT B DEB","OBJECT_ID":"1965-063S","EPOCH":"2026-03-09T08:47:26.961792","MEAN_MOTION":12.55784343,"ECCENTRICITY":0.03735381,"INCLINATION":69.3236,"RA_OF_ASC_NODE":52.9543,"ARG_OF_PERICENTER":213.6315,"MEAN_ANOMALY":300.3978,"EPHEMERIS_TYPE":0,"CLASSIFICATION_TYPE":"U","NORAD_CAT_ID":29168,"ELEMENT_SET_NO":999,"REV_AT_EPOCH":61770,"BSTAR":0.025203067,"MEAN_MOTION_DOT":5.33e-5,"MEAN_MOTION_DDOT":0}]
